[{"OBJECT_NAME":"SUPERVIEW NEO-2 02","OBJECT_ID":"2022-082C","EPOCH":"2026-03-10T00:20:09.225888","MEAN_MOTION":15.24501295,"ECCENTRICITY":0.00016181,"INCLINATION":97.3937,"RA_OF_ASC_NODE":80.3251,"ARG_OF_PERICENTER":90.4138,"MEAN_ANOMALY":269.7285,"EPHEMERIS_TYPE":0,"CLASSIFICATION_TYPE":"U","NORAD_CAT_ID":53130,"ELEMENT_SET_NO":999,"REV_AT_EPOCH":20310,"BSTAR":-4.28097e-7,"MEAN_MOTION_DOT":-8.1e-7,"MEAN_MOTION_DDOT":0},{"OBJECT_NAME":"OBJECT D","OBJECT_ID":"2021-050D","EPOCH":"2026-03-09T22:38:42.248256","MEAN_MOTION":15.23648479,"ECCENTRICITY":0.00079782,"INCLINATION":97.3398,"RA_OF_ASC_NODE":147.2286,"ARG_OF_PERICENTER":192.9806,"MEAN_ANOMALY":167.1228,"EPHEMERIS_TYPE":0,"CLASSIFICATION_TYPE":"U","NORAD_CAT_ID":48843,"ELEMENT_SET_NO":999,"REV_AT_EPOCH":26385,"BSTAR":0.00026174716,"MEAN_MOTION_DOT":6.21e-5,"MEAN_MOTION_DDOT":0}]
